FENGYUN 1C DEB          
1 36719U 99025EAR 17342.85136192  .00000554  00000-0  27591-3 0  9994
2 36719  98.4693 207.3913 0107194 352.8244   7.1392 14.17849797459447
